0 FENGYUN 1C DEB
1 31833U 99025CHX 13281.05632738  .00000900  00000-0  11478-2 0  2481
2 31833 098.2403 214.8444 0341720 301.1899 055.5861 13.43539079312449
0 FENGYUN 1C DEB
1 31833U 99025CHX 13284.03507135  .00000896  00000-0  11430-2 0  2497
2 31833 098.2396 217.2877 0341953 293.5660 062.9772 13.43544432312841
0 FENGYUN 1C DEB
1 31833U 99025CHX 13286.04572276  .00000891  00000-0  11367-2 0  2504
2 31833 098.2398 218.9385 0341792 288.4317 067.9835 13.43547893313118
0 FENGYUN 1C DEB
1 31833U 99025CHX 13292.59895567  .00000886  00000-0  11331-2 0  2518
2 31833 098.2406 224.3172 0340682 271.5659 084.6467 13.43559848313998
